#dV2019  9 24  0  0  0.00000000    8640 U+u   IGS14 FIT TUD 
## 2072 172800.00000000    10.00000000 58750 0.0000000000000
+    1   L47  0  0  0  0  0  0  0  0  0  0  0  0  0  0  0  0                          
+          0  0  0  0  0  0  0  0  0  0  0  0  0  0  0  0  0                          
+          0  0  0  0  0  0  0  0  0  0  0  0  0  0  0  0  0                          
+          0  0  0  0  0  0  0  0  0  0  0  0  0  0  0  0  0                          
+          0  0  0  0  0  0  0  0  0  0  0  0  0  0  0  0  0                          
++         0  0  0  0  0  0  0  0  0  0  0  0  0  0  0  0  0                          
++         0  0  0  0  0  0  0  0  0  0  0  0  0  0  0  0  0                          
++         0  0  0  0  0  0  0  0  0  0  0  0  0  0  0  0  0                          
++         0  0  0  0  0  0  0  0  0  0  0  0  0  0  0  0  0                          
++         0  0  0  0  0  0  0  0  0  0  0  0  0  0  0  0  0                          
%c M  cc GPS ccc cccc cccc cccc cccc ccccc ccccc ccccc ccccc                          
%c cc cc ccc ccc cccc cccc cccc cccc ccccc ccccc ccccc ccccc                          
%f  0.0000000  0.000000000  0.00000000000  0.000000000000000                          
%f  0.0000000  0.000000000  0.00000000000  0.000000000000000                          
%i    0    0    0    0      0      0      0      0         0                          
%i    0    0    0    0      0      0      0      0         0                          
/* Created by: RDOD_AR_WGT                                                            
/* Setup     : SWARMA.19.267_RDOD_AR.inp                                              
/* Executed  : 10-May-2021 18:31 UTC, by swarmgen@euclid2.lr.tudelft.nl               
/*                                                                                    
*  2019 09 24 01 06 00.00000000                             
PL47  1605.2700247   536.6361485  6589.5393472 999999.999999
VL47 64957.7677901 35427.4329561-18659.4073779 999999.999999
*  2019 09 24 01 06 10.00000000                             
PL47  1670.1515979   571.9818608  6570.4642922 999999.999999
VL47 64803.9822653 35263.2901192-19490.3034771 999999.999999
*  2019 09 24 01 06 20.00000000                             
PL47  1734.8751986   607.1613311  6550.5595560 999999.999999
VL47 64641.8251418 35094.9544211-20318.7523067 999999.999999
*  2019 09 24 01 06 30.00000000                             
PL47  1799.4324622   642.1703832  6529.8276380 999999.999999
VL47 64471.3101419 34922.4593315-21144.6497079 999999.999999
*  2019 09 24 01 06 40.00000000                             
PL47  1863.8150379   677.0048745  6508.2711417 999999.999999
VL47 64292.4522156 34745.8384379-21967.8918506 999999.999999
*  2019 09 24 01 06 50.00000000                             
PL47  1928.0145909   711.6606962  6485.8927739 999999.999999
VL47 64105.2673383 34565.1259508-22788.3752466 999999.999999
*  2019 09 24 01 07 00.00000000                             
PL47  1992.0228026   746.1337741  6462.6953452 999999.999999
VL47 63909.7725100 34380.3566719-23605.9967503 999999.999999
*  2019 09 24 01 07 10.00000000                             
PL47  2055.8313720   780.4200689  6438.6817687 999999.999999
VL47 63705.9859551 34191.5654275-24420.6535557 999999.999999
*  2019 09 24 01 07 20.00000000                             
PL47  2119.4320170   814.5155763  6413.8550604 999999.999999
VL47 63493.9267397 33998.7881032-25232.2431948 999999.999999
*  2019 09 24 01 07 30.00000000                             
PL47  2182.8164747   848.4163283  6388.2183387 999999.999999
VL47 63273.6151857 33802.0605640-26040.6635388 999999.999999
*  2019 09 24 01 07 40.00000000                             
PL47  2245.9765037   882.1183928  6361.7748237 999999.999999
VL47 63045.0726482 33601.4192703-26845.8128027 999999.999999
*  2019 09 24 01 07 50.00000000                             
PL47  2308.9038838   915.6178746  6334.5278373 999999.999999
VL47 62808.3215384 33396.9012679-27647.5895611 999999.999999
*  2019 09 24 01 08 00.00000000                             
PL47  2371.5904184   948.9109154  6306.4808024 999999.999999
VL47 62563.3855835 33188.5435509-28445.8927754 999999.999999
*  2019 09 24 01 08 10.00000000                             
PL47  2434.0279349   981.9936945  6277.6372431 999999.999999
VL47 62310.2893418 32976.3842821-29240.6218297 999999.999999
*  2019 09 24 01 08 20.00000000                             
PL47  2496.2082856  1014.8624295  6248.0007836 999999.999999
VL47 62049.0586799 32760.4615501-30031.6765636 999999.999999
*  2019 09 24 01 08 30.00000000                             
PL47  2558.1233497  1047.5133760  6217.5751480 999999.999999
VL47 61779.7204670 32540.8140707-30818.9572959 999999.999999
*  2019 09 24 01 08 40.00000000                             
PL47  2619.7650333  1079.9428292  6186.3641600 999999.999999
VL47 61502.3025646 32317.4811603-31602.3648405 999999.999999
*  2019 09 24 01 08 50.00000000                             
PL47  2681.1252713  1112.1471229  6154.3717423 999999.999999
VL47 61216.8341149 32090.5019805-32381.8005149 999999.999999
*  2019 09 24 01 09 00.00000000                             
PL47  2742.1960280  1144.1226312  6121.6019157 999999.999999
VL47 60923.3449639 31859.9169013-33157.1661425 999999.999999
*  2019 09 24 01 09 10.00000000                             
PL47  2802.9692980  1175.8657682  6088.0587992 999999.999999
VL47 60621.8662435 31625.7660713-33928.3640486 999999.999999
*  2019 09 24 01 09 20.00000000                             
PL47  2863.4371080  1207.3729883  6053.7466092 999999.999999
VL47 60312.4300186 31388.0902671-34695.2970545 999999.999999
*  2019 09 24 01 09 30.00000000                             
PL47  2923.5915166  1238.6407874  6018.6696590 999999.999999
VL47 59995.0694308 31146.9305741-35457.8684797 999999.999999
*  2019 09 24 01 09 40.00000000                             
PL47  2983.4246168  1269.6657020  5982.8323582 999999.999999
VL47 59669.8186858 30902.3284358-36215.9821528 999999.999999
*  2019 09 24 01 09 50.00000000                             
PL47  3042.9285356  1300.4443108  5946.2392125 999999.999999
VL47 59336.7129494 30654.3259134-36969.5424304 999999.999999
*  2019 09 24 01 10 00.00000000                             
PL47  3102.0954365  1330.9732343  5908.8948229 999999.999999
VL47 58995.7887227 30402.9647689-37718.4542199 999999.999999
*  2019 09 24 01 10 10.00000000                             
PL47  3160.9175193  1361.2491351  5870.8038851 999999.999999
VL47 58647.0831390 30148.2880684-38462.6229937 999999.999999
*  2019 09 24 01 10 20.00000000                             
PL47  3219.3870218  1391.2687194  5831.9711892 999999.999999
VL47 58290.6346479 29890.3385410-39201.9547951 999999.999999
*  2019 09 24 01 10 30.00000000                             
PL47  3277.4962207  1421.0287357  5792.4016189 999999.999999
VL47 57926.4826140 29629.1594857-39936.3562375 999999.999999
*  2019 09 24 01 10 40.00000000                             
PL47  3335.2374326  1450.5259765  5752.1001511 999999.999999
VL47 57554.6673269 29364.7947525-40665.7345027 999999.999999
*  2019 09 24 01 10 50.00000000                             
PL47  3392.6030148  1479.7572778  5711.0718551 999999.999999
VL47 57175.2304186 29097.2877951-41389.9973446 999999.999999
*  2019 09 24 01 11 00.00000000                             
PL47  3449.5853669  1508.7195196  5669.3218921 999999.999999
VL47 56788.2141055 28826.6834357-42109.0531021 999999.999999
*  2019 09 24 01 11 10.00000000                             
PL47  3506.1769311  1537.4096270  5626.8555149 999999.999999
VL47 56393.6619692 28553.0260777-42822.8107169 999999.999999
*  2019 09 24 01 11 20.00000000                             
PL47  3562.3701938  1565.8245691  5583.6780669 999999.999999
VL47 55991.6185166 28276.3607077-43531.1797510 999999.999999
*  2019 09 24 01 11 30.00000000                             
PL47  3618.1576862  1593.9613609  5539.7949816 999999.999999
VL47 55582.1291856 27996.7328780-44234.0704044 999999.999999
*  2019 09 24 01 11 40.00000000                             
PL47  3673.5319858  1621.8170624  5495.2117819 999999.999999
VL47 55165.2407941 27714.1876673-44931.3935367 999999.999999
*  2019 09 24 01 11 50.00000000                             
PL47  3728.4857172  1649.3887793  5449.9340798 999999.999999
VL47 54741.0006867 27428.7715862-45623.0606906 999999.999999
*  2019 09 24 01 12 00.00000000                             
PL47  3783.0115528  1676.6736640  5403.9675751 999999.999999
VL47 54309.4575675 27140.5306293-46308.9841099 999999.999999
*  2019 09 24 01 12 10.00000000                             
PL47  3837.1022145  1703.6689145  5357.3180552 999999.999999
VL47 53870.6609980 26849.5113509-46989.0767448 999999.999999
*  2019 09 24 01 12 20.00000000                             
PL47  3890.7504738  1730.3717762  5309.9913940 999999.999999
VL47 53424.6613929 26555.7608401-47663.2522468 999999.999999
*  2019 09 24 01 12 30.00000000                             
PL47  3943.9491535  1756.7795412  5261.9935516 999999.999999
VL47 52971.5105182 26259.3255984-48331.4249637 999999.999999
*  2019 09 24 01 12 40.00000000                             
PL47  3996.6911284  1782.8895485  5213.3305734 999999.999999
VL47 52511.2605882 25960.2535967-48993.5099431 999999.999999
*  2019 09 24 01 12 50.00000000                             
PL47  4048.9693262  1808.6991853  5164.0085891 999999.999999
VL47 52043.9652075 25658.5921837-49649.4229466 999999.999999
*  2019 09 24 01 13 00.00000000                             
PL47  4100.7767285  1834.2058857  5114.0338126 999999.999999
VL47 51569.6788183 25354.3893337-50299.0804680 999999.999999
*  2019 09 24 01 13 10.00000000                             
PL47  4152.1063719  1859.4071328  5063.4125409 999999.999999
VL47 51088.4568965 25047.6932050-50942.3997503 999999.999999
EOF                                                         
